[{"OBJECT_NAME":"STARLINK-31311","OBJECT_ID":"2024-027T","EPOCH":"2026-03-09T23:26:47.851008","MEAN_MOTION":15.30172647,"ECCENTRICITY":0.00013077,"INCLINATION":53.1608,"RA_OF_ASC_NODE":306.0707,"ARG_OF_PERICENTER":72.0046,"MEAN_ANOMALY":288.1097,"EPHEMERIS_TYPE":0,"CLASSIFICATION_TYPE":"U","NORAD_CAT_ID":58948,"ELEMENT_SET_NO":999,"REV_AT_EPOCH":11740,"BSTAR":-1.1276791e-5,"MEAN_MOTION_DOT":-6.93e-6,"MEAN_MOTION_DDOT":0},{"OBJECT_NAME":"COSMOS 1953","OBJECT_ID":"1988-050A","EPOCH":"2026-03-09T18:09:26.993952","MEAN_MOTION":15.28528086,"ECCENTRICITY":0.00124769,"INCLINATION":82.5105,"RA_OF_ASC_NODE":158.18,"ARG_OF_PERICENTER":122.2454,"MEAN_ANOMALY":237.9996,"EPHEMERIS_TYPE":0,"CLASSIFICATION_TYPE":"U","NORAD_CAT_ID":19210,"ELEMENT_SET_NO":999,"REV_AT_EPOCH":3779,"BSTAR":0.00029210954,"MEAN_MOTION_DOT":8.158e-5,"MEAN_MOTION_DDOT":0}]
